ONEWEB-0377             
1 49303U 21090AA  24096.89721185  .00000041  00000+0  69358-4 0  9992
2 49303  87.9156  74.0750 0002129  91.6816 268.4561 13.20770414124610
ONEWEB-0378             
1 49304U 21090AB  24096.91953720  .00018029  00000+0  44083-1 0  9998
2 49304  87.9154  74.0731 0002004  85.2489 274.8873 13.20984533123889
ONEWEB-0379             
1 49305U 21090AC  24096.90865488  .00000050  00000+0  10066-3 0  9992
2 49305  87.8900  89.3566 0001872  83.9168 276.2175 13.14499456122163
ONEWEB-0380             
1 49306U 21090AD  24096.74020821  .00000052  00000+0  98404-4 0  9994
2 49306  87.9098 104.6925 0002033  92.5681 267.5685 13.19724807120588
ONEWEB-0381             
1 49307U 21090AE  24096.89390791  .00000089  00000+0  18673-3 0  9996
2 49307  87.9157  74.0822 0002076  86.5625 273.5746 13.20769552123923
ONEWEB-0382             
1 49308U 21090AF  24096.88128339  .00000056  00000+0  10642-3 0  9995
2 49308  87.9156  74.0821 0002269  74.7699 285.3686 13.20768838123915
ONEWEB-0383             
1 49309U 21090AG  24096.90230469  .00000096  00000+0  22423-3 0  9991
2 49309  87.8898  89.3479 0001944  79.3135 280.8213 13.14503467122194
ONEWEB-0384             
1 49310U 21090AH  24096.87814775  .00000065  00000+0  12896-3 0  9996
2 49310  87.9158  74.0930 0002369  73.6589 286.4804 13.20770824123921
